IRIDIUM 36              
1 24967U 97056C   24123.36816866  .00000605  00000+0  19843-3 0  9999
2 24967  86.3981 345.5368 0002006  87.6459 272.4968 14.36761161393218
IRIDIUM 39              
1 25042U 97069D   24123.19073096  .00000881  00000+0  23218-3 0  9996
2 25042  86.3961  27.2307 0016271 234.3632 125.6057 14.47892744389724
IRIDIUM 38              
1 25043U 97069E   24123.52938413  .00000667  00000+0  21775-3 0  9995
2 25043  86.3990  45.8390 0003147  51.5370 308.6109 14.37214843387211
IRIDIUM 42              
1 25077U 97077A   24123.52821595  .00000595  00000+0  19993-3 0  9992
2 25077  86.3987  51.5053 0002614  73.3749 286.7734 14.35519008382263
IRIDIUM 44              
1 25078U 97077B   24122.49793792  .00000707  00000+0  22137-3 0  9994
2 25078  86.3998  34.9706 0001310  32.0010 328.1268 14.39349027384497
IRIDIUM 45              
1 25104U 97082A   24122.73923382  .00014273  00000+0  80931-3 0  9996
2 25104  86.3739 244.0246 0163666  48.8758 312.6469 15.02080465389888
IRIDIUM 24              
1 25105U 97082B   24123.06042696  .00000806  00000+0  24394-3 0  9992
2 25105  86.3902 254.3900 0011386   6.4271 353.7072 14.41119425384234
IRIDIUM 51              
1 25262U 98018A   24122.80548175  .00011698  00000+0  55688-3 0  9991
2 25262  86.3955 253.9493 0148494 354.3089   5.6452 15.09673837384637
